RESOURCESAT-2           
1 37387U 11015A   25187.57850656  .00000050  00000+0  43333-4 0  9995
2 37387  98.8076 251.6494 0006851 127.8432 232.3366 14.21578376737079
YOUTHSAT                
1 37388U 11015B   25187.55091725  .00000154  00000+0  82551-4 0  9998
2 37388  98.3256 173.0788 0013276 278.1715 191.1691 14.25404859738398
APRIZESAT 6             
1 37793U 11044F   25187.60534037  .00000589  00000+0  91926-4 0  9992
2 37793  98.2581  85.8837 0045008 110.2801 314.4007 14.76113556746154
JUGNU                   
1 37839U 11058B   25187.52291122  .00000394  00000+0  66436-4 0  9996
2 37839  19.9598 248.2048 0018422 218.9022 275.6323 14.13610779710052
SRMSAT                  
1 37841U 11058D   25187.60409712  .00000371  00000+0  57877-4 0  9998
2 37841  19.9737 351.0150 0011808   2.4495  66.0394 14.11442649708939
SUOMI NPP               
1 37849U 11061A   25187.53741272  .00000037  00000+0  38233-4 0  9996
2 37849  98.7580 126.5086 0000686 182.3487 177.7686 14.19544121709393
YAOGAN-12               
1 37875U 11066B   25187.59308281  .00005847  00000+0  24605-3 0  9996
2 37875  97.1650 237.2790 0010394  27.2530 332.9251 15.23696281759386
ZIYUAN 3-1 (ZY 3-1)     
1 38046U 12001A   25187.59255011  .00018019  00000+0  28256-3 0  9990
2 38046  97.1976 252.3015 0003949 160.9429 199.1974 15.53740973750170
BEIDOU-2 M4             
1 38251U 12018B   25187.32113216 -.00000098  00000+0  00000+0 0  9999
2 38251  55.9544 315.7534 0012385 266.4749  93.3805  1.86232160 89507
ARIRANG-3 (KOMPSAT-3)   
1 38338U 12025B   25187.57234651  .00000361  00000+0  82561-4 0  9996
2 38338  98.3072 141.2452 0007204  99.8096 260.3918 14.61445645700858
HORYU-2                 
1 38340U 12025D   25187.27551572  .00002891  00000+0  32291-3 0  9994
2 38340  98.1811 302.8070 0007817 224.9828 135.0755 14.87786315697239
CSSWE                   
1 38761U 12048D   25187.32273001  .00013792  00000+0  46087-3 0  9990
2 38761  64.6620 167.3626 0112985 267.8849  90.9338 15.25276499 63339
CP5                     
1 38763U 12048F   25187.48621474  .00007789  00000+0  32955-3 0  9998
2 38763  64.6540 205.4023 0127911 272.2186  86.4296 15.16710831 64142
METOP-B                 
1 38771U 12049A   25187.56758598  .00000067  00000+0  50122-4 0  9994
2 38771  98.5756 241.0231 0000408 112.5097 247.6124 14.21461958664168
SJ-9A                   
1 38860U 12056A   25187.55869785  .00000899  00000+0  11244-3 0  9995
2 38860  97.6262 168.2313 0024992 317.6240  42.3044 14.84454504648297
COSMOS 2484             
1 39059U 13001C   25187.58468667  .00000014  00000+0  29013-4 0  9997
2 39059  82.5012  76.8083 0027506  67.1973 293.2008 12.42924204565629
SARAL                   
1 39086U 13009A   25187.56816471  .00000076  00000+0  44153-4 0  9993
2 39086  98.5535  13.5552 0001255 190.2839 169.8320 14.32689119646110
AAUSAT 3                
1 39087U 13009B   25187.47235987  .00000550  00000+0  19091-3 0  9990
2 39087  98.3668  14.3537 0011874 164.3096 195.8462 14.39262691647434
STRAND-1                
1 39090U 13009E   25187.48599167  .00000252  00000+0  99833-4 0  9990
2 39090  98.3831  11.4758 0008728 176.1841 183.9414 14.36834892647414
BRITE-AUSTRIA           
1 39091U 13009F   25187.50108989  .00000159  00000+0  68781-4 0  9996
2 39091  98.3889  10.7404 0010059 185.5719 174.5358 14.36321239647426
UNIBRITE                
1 39092U 13009G   25187.48243705  .00000155  00000+0  67698-4 0  9992
2 39092  98.3928  10.7460 0009083 180.9678 179.1492 14.36192895647368
AIST-2 (RS-43)          
1 39133U 13015D   25187.63128660  .00004237  00000+0  19658-3 0  9991
2 39133  64.8716 302.7961 0031952 275.9136  83.8351 15.21035985671252
GAOFEN-1                
1 39150U 13018A   25187.58246888  .00000463  00000+0  73681-4 0  9994
2 39150  97.9493 260.8836 0016187 301.7363  58.2269 14.76494083657242
NEE-01 PEGASO           
1 39151U 13018B   25187.29596644  .00002480  00000+0  25695-3 0  9993
2 39151  98.0758 316.7499 0012582 217.4342 142.6000 14.90945151659112
TURKSAT-3USAT           
1 39152U 13018C   25187.21968733  .00002351  00000+0  23032-3 0  9998
2 39152  97.8091 275.0426 0013248 166.3552 193.8028 14.93179144659406
CUBEBUG-1 (CAPITAN BETO)
1 39153U 13018D   25187.36192682  .00002561  00000+0  24643-3 0  9999
2 39153  98.1224 328.7230 0011892 205.2250 154.8389 14.93885294659372
PROBA-V                 
1 39159U 13021A   25187.58747737  .00000075  00000+0  50815-4 0  9999
2 39159  98.3214 179.0170 0005356  70.7217 289.4541 14.23493366631941
ESTCUBE 1               
1 39161U 13021C   25187.59537061  .00001351  00000+0  18593-3 0  9994
2 39161  97.7794 248.2703 0009809  67.1361 293.0886 14.79814381653883
ARIRANG-5 (KOMPSAT-5)   
1 39227U 13042A   25187.58842937  .00001493  00000+0  11085-3 0  9996
2 39227  97.6204  14.1107 0001166 202.9586 157.1588 15.04540130651890
GONETS-M 5              
1 39249U 13048A   25187.53906241  .00000051  00000+0  29808-3 0  9991
2 39249  82.4803 198.8402 0014934 244.2338 115.7201 12.42866299535945
GONETS-M 7              
1 39251U 13048C   25187.59006168  .00000049  00000+0  28173-3 0  9990
2 39251  82.4869 201.5497 0015744 245.3224 114.6216 12.42898933535902
FENGYUN 3C              
1 39260U 13052A   25187.57705272  .00000077  00000+0  60113-4 0  9997
2 39260  98.4553 173.1854 0013651 301.3354  58.6484 14.15633544609736
CASSIOPE                
1 39265U 13055A   25187.60105559  .00025235 -79076-6  38710-3 0  9998
2 39265  80.9411 117.7770 0388646 125.3498 238.4705 14.98869515615442
APRIZESAT 7             
1 39416U 13066A   25187.44874380  .00000923  00000+0  99987-4 0  9999
2 39416  97.7221 142.0314 0035227 277.5731  82.1486 14.90192559629718
ZACUBE-1 (TSHEPISOSAT)  
1 39417U 13066B   25187.39388207  .00003352  00000+0  29220-3 0  9993
2 39417  97.7800 144.2700 0043185 324.2602  35.5730 14.96866279628923
APRIZESAT 8             
1 39425U 13066K   25187.36105633  .00000994  00000+0  11643-3 0  9998
2 39425  97.7771 135.9120 0046596 345.4997  14.4878 14.86519777628277
CINEMA-3 (KHUSAT-2)     
1 39426U 13066L   25187.57363831  .00000901  00000+0  12756-3 0  9992
2 39426  97.8451 104.0580 0090937 251.0288 108.1051 14.76790847623417
TRITON-1                
1 39427U 13066M   25187.59773068  .00001802  00000+0  23311-3 0  9992
2 39427  97.8352 100.6889 0092678 279.0099  80.0632 14.79199343622954
DELFI-N3XT              
1 39428U 13066N   25187.31514177  .00004920  00000+0  50091-3 0  9996
2 39428  97.8335 104.6716 0082530 272.6846  86.4926 14.88675173623052
GOMX-1                  
1 39430U 13066Q   25187.55214137  .00001655  00000+0  26147-3 0  9995
2 39430  97.6813  44.5582 0133765 105.9109 255.6885 14.67726655619186
BRITE-PL1 (LEM)         
1 39431U 13066R   25187.36883690  .00000371  00000+0  84261-4 0  9997
2 39431  97.7579 320.3766 0192598   7.2810 353.1112 14.50626702613789
ICUBE-1                 
1 39432U 13066S   25187.47302028  .00008274  00000+0  44217-3 0  9997
2 39432  97.5364 167.4140 0022834  96.2479 264.1355 15.15121268631880
HUMSAT-D                
1 39433U 13066T   25187.53533499  .00028285  00000+0  78720-3 0  9993
2 39433  97.5015 183.9233 0010671  33.8291 326.3632 15.36731207633216
VELOX-PII               
1 39438U 13066Y   25187.29956962  .00002579  00000+0  26482-3 0  9991
2 39438  97.8299 135.0192 0057412  48.4608 312.1514 14.90066304626276
FIRST-MOVE              
1 39439U 13066Z   25187.40175010  .00026905  00000+0  92083-3 0  9991
2 39439  97.7428 162.8250 0022254 249.9739 109.9104 15.29975766629018
CUBEBUG-2 (LO-74)       
1 39440U 13066AA  25187.40546273  .00003250  00000+0  32971-3 0  9994
2 39440  97.8497 131.7828 0063572  91.4977 269.3524 14.90077833625439
NEE-02 KRYSAOR          
1 39441U 13066AB  25187.34646193  .00001628  00000+0  19166-3 0  9998
2 39441  97.8559 125.3100 0070114 121.9420 238.8638 14.84446562624857
FUNCUBE-1 (AO-73)       
1 39444U 13066AE  25187.31913149  .00005966  00000+0  44438-3 0  9995
2 39444  97.7800 149.3396 0041043 296.9448  62.7587 15.02628878627609
HINCUBE                 
1 39445U 13066AF  25187.37860336  .00006067  00000+0  46312-3 0  9997
2 39445  97.7482 148.4213 0038474 303.9462  55.8107 15.01774903627514
UWE-3                   
1 39446U 13066AG  25187.41208040  .00004383  00000+0  41464-3 0  9993
2 39446  97.8243 138.1896 0053956  31.8519 328.5944 14.93083245625919
SMDC ONE 2.4            
1 39469U 13072H   25187.63263029  .00013156  00000+0  63504-3 0  9994
2 39469 120.4933 108.7481 0174424   5.3657 354.9237 15.06773201 65547
CP8 (IPEX)              
1 39471U 13072K   25187.51813610  .00006820  00000+0  39603-3 0  9994
2 39471 120.4702  72.7231 0187709 355.6186   4.3238 14.99926087 63228
COSMOS 2488             
1 39483U 13076A   25187.62375265  .00000021  00000+0  78057-4 0  9996
2 39483  82.4841  24.0427 0019818 127.0703 233.2192 12.42864098522962
COSMOS 2489             
1 39484U 13076B   25187.59617683  .00000041  00000+0  22399-3 0  9995
2 39484  82.4876  25.3316 0021575 127.5834 232.7209 12.42865263523010
COSMOS 2490             
1 39485U 13076C   25187.56745812  .00000034  00000+0  17353-3 0  9995
2 39485  82.4824  23.5663 0021580 143.3071 216.9491 12.42863079522945
AIST-1 (RS-41)          
1 39492U 13078C   25187.60997470  .00001118  00000+0  10075-3 0  9997
2 39492  82.4152 245.2604 0017096   0.5146 359.6089 14.94576369623604
KAZEOSAT 1              
1 39731U 14024A   25187.61755191  .00000138  00000+0  55024-4 0  9993
2 39731  98.3591 262.9452 0001237  86.3061 273.8271 14.42033211588751
COSMOS 2496             
1 39761U 14028A   25187.52748411  .00000014  00000+0  32501-4 0  9995
2 39761  82.4475 325.2245 0020785 113.5193 246.8073 12.42891261504573
COSMOS 2497             
1 39762U 14028B   25187.58221327  .00000024  00000+0  99421-4 0  9999
2 39762  82.4524 326.7412 0021282 108.3041 252.0357 12.42863502504580
